[
    {
        "Altitude(m)": 624790.7945601554,
        "Argument of Periapsis(deg)": 0.0,
        "Eccentricity": 0.0,
        "Inclination(deg)": 60.0,
        "Latitude(deg)": -59.147114069542916,
        "Longitude(deg)": 171.03444961428377,
        "Mean Anomaly(deg)": -81.8182,
        "RAAN(deg)": 345.0,
        "Satellite Name": "Test1 1535",
        "Satellite Number": 1535,
        "Semi-Major Axis(m)": 6980739.136638005,
        "Time(s)": 0
    },
    {
        "Altitude(m)": 624737.450233821,
        "Argument of Periapsis(deg)": 0.00010418945913296404,
        "Eccentricity": 0.0,
        "Inclination(deg)": 60.0,
        "Latitude(deg)": -58.994571044450744,
        "Longitude(deg)": 172.153952571391,
        "Mean Anomaly(deg)": -81.19809385453816,
        "RAAN(deg)": 344.99957995086027,
        "Satellite Name": "Test1 1535",
        "Satellite Number": 1535,
        "Semi-Major Axis(m)": 6980739.136638005,
        "Time(s)": 10
    }
]